[{"OBJECT_NAME":"OBJECT E","OBJECT_ID":"2024-205E","EPOCH":"2026-03-09T21:50:57.607872","MEAN_MOTION":15.117677,"ECCENTRICITY":0.00499914,"INCLINATION":97.419,"RA_OF_ASC_NODE":142.6836,"ARG_OF_PERICENTER":337.9131,"MEAN_ANOMALY":21.9945,"EPHEMERIS_TYPE":0,"CLASSIFICATION_TYPE":"U","NORAD_CAT_ID":61898,"ELEMENT_SET_NO":999,"REV_AT_EPOCH":7323,"BSTAR":0.00048588417,"MEAN_MOTION_DOT":8.479e-5,"MEAN_MOTION_DDOT":0},{"OBJECT_NAME":"UNKNOWN","OBJECT_ID":"","EPOCH":"2026-03-05T07:23:30.759360","MEAN_MOTION":15.16846688,"ECCENTRICITY":0.00030538,"INCLINATION":98.6694,"RA_OF_ASC_NODE":94.3286,"ARG_OF_PERICENTER":181.4323,"MEAN_ANOMALY":178.6899,"EPHEMERIS_TYPE":0,"CLASSIFICATION_TYPE":"U","NORAD_CAT_ID":270304,"ELEMENT_SET_NO":999,"REV_AT_EPOCH":26068,"BSTAR":0.007049134,"MEAN_MOTION_DOT":0.00141256,"MEAN_MOTION_DDOT":0}]
